{
    "links": {
        "self": "http://www.neowsapp.com/rest/v1/neo/54016306?api_key=iIulBulltgU6a56xZRHN4H3l9WmuAYTsLGpBGhQ2"
    },
    "id": "54016306",
    "neo_reference_id": "54016306",
    "name": "(2020 FV2)",
    "designation": "2020 FV2",
    "nasa_jpl_url": "http://ssd.jpl.nasa.gov/sbdb.cgi?sstr=54016306",
    "absolute_magnitude_h": 22.141,
    "estimated_diameter": {
        "kilometers": {
            "estimated_diameter_min": 0.0991642146,
            "estimated_diameter_max": 0.2217379248
        },
        "meters": {
            "estimated_diameter_min": 99.1642146169,
            "estimated_diameter_max": 221.7379248187
        },
        "miles": {
            "estimated_diameter_min": 0.0616177672,
            "estimated_diameter_max": 0.1377815161
        },
        "feet": {
            "estimated_diameter_min": 325.3419218835,
            "estimated_diameter_max": 727.486653262
        }
    },
    "is_potentially_hazardous_asteroid": false,
    "close_approach_data": [
        {
            "close_approach_date": "2014-03-12",
            "close_approach_date_full": "2014-Mar-12 09:16",
            "epoch_date_close_approach": 1394615760000,
            "relative_velocity": {
                "kilometers_per_second": "23.5000693336",
                "kilometers_per_hour": "84600.2496010586",
                "miles_per_hour": "52567.3050923911"
            },
            "miss_distance": {
                "astronomical": "0.4207161177",
                "lunar": "163.6585697853",
                "kilometers": "62938235.082589299",
                "miles": "39108005.8179943662"
            },
            "orbiting_body": "Earth"
        },
        {
            "close_approach_date": "2017-03-19",
            "close_approach_date_full": "2017-Mar-19 17:54",
            "epoch_date_close_approach": 1489946040000,
            "relative_velocity": {
                "kilometers_per_second": "20.1984142469",
                "kilometers_per_hour": "72714.291288737",
                "miles_per_hour": "45181.8328288266"
            },
            "miss_distance": {
                "astronomical": "0.2185847249",
                "lunar": "85.0294579861",
                "kilometers": "32699809.259575963",
                "miles": "20318719.2823677694"
            },
            "orbiting_body": "Earth"
        },
        {
            "close_approach_date": "2020-03-26",
            "close_approach_date_full": "2020-Mar-26 13:44",
            "epoch_date_close_approach": 1585230240000,
            "relative_velocity": {
                "kilometers_per_second": "18.2507390777",
                "kilometers_per_hour": "65702.6606796912",
                "miles_per_hour": "40825.0782428892"
            },
            "miss_distance": {
                "astronomical": "0.1586741688",
                "lunar": "61.7242516632",
                "kilometers": "23737317.676500456",
                "miles": "14749685.2521840528"
            },
            "orbiting_body": "Earth"
        },
        {
            "close_approach_date": "2023-04-02",
            "close_approach_date_full": "2023-Apr-02 15:24",
            "epoch_date_close_approach": 1680449040000,
            "relative_velocity": {
                "kilometers_per_second": "18.027688058",
                "kilometers_per_hour": "64899.6770088914",
                "miles_per_hour": "40326.135416997"
            },
            "miss_distance": {
                "astronomical": "0.3176504083",
                "lunar": "123.5660088287",
                "kilometers": "47519824.486310321",
                "miles": "29527449.7297555898"
            },
            "orbiting_body": "Earth"
        }
    ],
    "orbital_data": {
        "orbit_id": "10",
        "orbit_determination_date": "2020-04-11 06:08:38",
        "first_observation_date": "2020-03-21",
        "last_observation_date": "2020-04-11",
        "data_arc_in_days": 21,
        "observations_used": 123,
        "orbit_uncertainty": "7",
        "minimum_orbit_intersection": ".144627",
        "jupiter_tisserand_invariant": "3.426",
        "epoch_osculation": "2459000.5",
        "eccentricity": ".4705322199361291",
        "semi_major_axis": "2.096615689269074",
        "inclination": "32.53568310679976",
        "ascending_node_longitude": "180.8612268130426",
        "orbital_period": "1108.859888916246",
        "perihelion_distance": "1.110090454644379",
        "perihelion_argument": "25.95536670350109",
        "aphelion_distance": "3.083140923893768",
        "perihelion_time": "2458958.851689176704",
        "mean_anomaly": "13.5214485132478",
        "mean_motion": ".3246577891385802",
        "equinox": "J2000",
        "orbit_class": {
            "orbit_class_type": "AMO",
            "orbit_class_description": "Near-Earth asteroid orbits similar to that of 1221 Amor",
            "orbit_class_range": "1.017 AU < q (perihelion) < 1.3 AU"
        }
    },
    "is_sentry_object": false
}